CTC2_L_00449001-01
1 54299U 24363XC  26070.40848380  .00000000  00000+0  00000-0 0  9996
2 54299  55.0000   0.0000 0000000   0.0000   0.0000 15.90815360    10
CTC2_L_00449001-02
1 54300U 24058FT  26070.40848380  .00000000  00000+0  00000-0 0  9990
2 54300  55.0000   0.0000 0000000   0.0000  90.0000 15.90815360    12
CTC2_L_00449001-03
1 54301U 23082NC  26070.40848380  .00000000  00000+0  00000-0 0  9997
2 54301  55.0000   0.0000 0000000   0.0000 180.0000 15.90815360    13
CTC2_L_00449001-04
1 54302U 22478HN  26070.40848380  .00000000  00000+0  00000-0 0  9996
2 54302  55.0000   0.0000 0000000   0.0000 270.0000 15.90815360    14
CTC2_L_00449002-01
1 54303U 23545ER  26070.40848380  .00000000  00000+0  00000-0 0  9993
2 54303  55.0000  12.0000 0000000   0.0000  12.0000 15.90815360    12
CTC2_L_00449002-02
1 54304U 25981FX  26070.40848380  .00000000  00000+0  00000-0 0  9990
2 54304  55.0000  12.0000 0000000   0.0000 102.0000 15.90815360    13
CTC2_L_00449002-03
1 54305U 22315SQ  26070.40848380  .00000000  00000+0  00000-0 0  9999
2 54305  55.0000  12.0000 0000000   0.0000 192.0000 15.90815360    13
CTC2_L_00449002-04
1 54306U 22711CB  26070.40848380  .00000000  00000+0  00000-0 0  9990
2 54306  55.0000  12.0000 0000000   0.0000 282.0000 15.90815360    14
CTC2_L_00449003-01
1 54307U 25911QN  26070.40848380  .00000000  00000+0  00000-0 0  9996
2 54307  55.0000  24.0000 0000000   0.0000  24.0000 15.90815360    12
CTC2_L_00449003-02
1 54308U 26875WW  26070.40848380  .00000000  00000+0  00000-0 0  9997
2 54308  55.0000  24.0000 0000000   0.0000 114.0000 15.90815360    13
CTC2_L_00449003-03
1 54309U 23083SM  26070.40848380  .00000000  00000+0  00000-0 0  9996
2 54309  55.0000  24.0000 0000000   0.0000 204.0000 15.90815360    14
CTC2_L_00449003-04
1 54310U 26151IH  26070.40848380  .00000000  00000+0  00000-0 0  9997
2 54310  55.0000  24.0000 0000000   0.0000 294.0000 15.90815360    15
CTC2_L_00449004-01
1 54311U 24270ET  26070.40848380  .00000000  00000+0  00000-0 0  9998
2 54311  55.0000  36.0000 0000000   0.0000  36.0000 15.90815360    13
CTC2_L_00449004-02
1 54312U 25893GM  26070.40848380  .00000000  00000+0  00000-0 0  9991
2 54312  55.0000  36.0000 0000000   0.0000 126.0000 15.90815360    14
CTC2_L_00449004-03
1 54313U 25144CY  26070.40848380  .00000000  00000+0  00000-0 0  9991
2 54313  55.0000  36.0000 0000000   0.0000 216.0000 15.90815360    15
CTC2_L_00449004-04
1 54314U 26446BC  26070.40848380  .00000000  00000+0  00000-0 0  9998
2 54314  55.0000  36.0000 0000000   0.0000 306.0000 15.90815360    16
CTC2_L_00449005-01
1 54315U 23692UY  26070.40848380  .00000000  00000+0  00000-0 0  9999
2 54315  55.0000  48.0000 0000000   0.0000  48.0000 15.90815360    13
CTC2_L_00449005-02
1 54316U 24493RT  26070.40848380  .00000000  00000+0  00000-0 0  9990
2 54316  55.0000  48.0000 0000000   0.0000 138.0000 15.90815360    14
CTC2_L_00449005-03
1 54317U 23928ZJ  26070.40848380  .00000000  00000+0  00000-0 0  9993
2 54317  55.0000  48.0000 0000000   0.0000 228.0000 15.90815360    15
CTC2_L_00449005-04
1 54318U 25824PB  26070.40848380  .00000000  00000+0  00000-0 0  9991
2 54318  55.0000  48.0000 0000000   0.0000 318.0000 15.90815360    16
CTC2_L_00449006-01
1 54319U 22831JK  26070.40848380  .00000000  00000+0  00000-0 0  9997
2 54319  55.0000  60.0000 0000000   0.0000  60.0000 15.90815360    15
CTC2_L_00449006-02
1 54320U 26004KE  26070.40848380  .00000000  00000+0  00000-0 0  9995
2 54320  55.0000  60.0000 0000000   0.0000 150.0000 15.90815360    17
CTC2_L_00449006-03
1 54321U 22079QL  26070.40848380  .00000000  00000+0  00000-0 0  9994
2 54321  55.0000  60.0000 0000000   0.0000 240.0000 15.90815360    18
CTC2_L_00449006-04
1 54322U 25757IT  26070.40848380  .00000000  00000+0  00000-0 0  9991
2 54322  55.0000  60.0000 0000000   0.0000 330.0000 15.90815360    19
CTC2_L_00449007-01
1 54323U 24717TK  26070.40848380  .00000000  00000+0  00000-0 0  9997
2 54323  55.0000  72.0000 0000000   0.0000  72.0000 15.90815360    16
CTC2_L_00449007-02
1 54324U 22814FP  26070.40848380  .00000000  00000+0  00000-0 0  9994
2 54324  55.0000  72.0000 0000000   0.0000 162.0000 15.90815360    17
CTC2_L_00449007-03
1 54325U 23567HK  26070.40848380  .00000000  00000+0  00000-0 0  9991
2 54325  55.0000  72.0000 0000000   0.0000 252.0000 15.90815360    18
CTC2_L_00449007-04
1 54326U 25816WL  26070.40848380  .00000000  00000+0  00000-0 0  9991
2 54326  55.0000  72.0000 0000000   0.0000 342.0000 15.90815360    19
CTC2_L_00449008-01
1 54327U 23325MJ  26070.40848380  .00000000  00000+0  00000-0 0  9995
2 54327  55.0000  84.0000 0000000   0.0000  84.0000 15.90815360    16
CTC2_L_00449008-02
1 54328U 26501XM  26070.40848380  .00000000  00000+0  00000-0 0  9995
2 54328  55.0000  84.0000 0000000   0.0000 174.0000 15.90815360    17
CTC2_L_00449008-03
1 54329U 24922AV  26070.40848380  .00000000  00000+0  00000-0 0  9991
2 54329  55.0000  84.0000 0000000   0.0000 264.0000 15.90815360    18
CTC2_L_00449008-04
1 54330U 22882WT  26070.40848380  .00000000  00000+0  00000-0 0  9996
2 54330  55.0000  84.0000 0000000   0.0000 354.0000 15.90815360    10
CTC2_L_00449009-01
1 54331U 25221SB  26070.40848380  .00000000  00000+0  00000-0 0  9997
2 54331  55.0000  96.0000 0000000   0.0000  96.0000 15.90815360    17
CTC2_L_00449009-02
1 54332U 26399MB  26070.40848380  .00000000  00000+0  00000-0 0  9995
2 54332  55.0000  96.0000 0000000   0.0000 186.0000 15.90815360    18
CTC2_L_00449009-03
1 54333U 24054KY  26070.40848380  .00000000  00000+0  00000-0 0  9992
2 54333  55.0000  96.0000 0000000   0.0000 276.0000 15.90815360    19
CTC2_L_00449009-04
1 54334U 24602TR  26070.40848380  .00000000  00000+0  00000-0 0  9992
2 54334  55.0000  96.0000 0000000   0.0000   6.0000 15.90815360    11
CTC2_L_00449010-01
1 54335U 23374NI  26070.40848380  .00000000  00000+0  00000-0 0  9998
2 54335  55.0000 108.0000 0000000   0.0000 108.0000 15.90815360    19
CTC2_L_00449010-02
1 54336U 23202DF  26070.40848380  .00000000  00000+0  00000-0 0  9999
2 54336  55.0000 108.0000 0000000   0.0000 198.0000 15.90815360    19
CTC2_L_00449010-03
1 54337U 22232UZ  26070.40848380  .00000000  00000+0  00000-0 0  9992
2 54337  55.0000 108.0000 0000000   0.0000 288.0000 15.90815360    10
CTC2_L_00449010-04
1 54338U 24273NH  26070.40848380  .00000000  00000+0  00000-0 0  9990
2 54338  55.0000 108.0000 0000000   0.0000  18.0000 15.90815360    12
CTC2_L_00449011-01
1 54339U 25006QK  26070.40848380  .00000000  00000+0  00000-0 0  9996
2 54339  55.0000 120.0000 0000000   0.0000 120.0000 15.90815360    11
CTC2_L_00449011-02
1 54340U 24195LZ  26070.40848380  .00000000  00000+0  00000-0 0  9996
2 54340  55.0000 120.0000 0000000   0.0000 210.0000 15.90815360    13
CTC2_L_00449011-03
1 54341U 25695DX  26070.40848380  .00000000  00000+0  00000-0 0  9993
2 54341  55.0000 120.0000 0000000   0.0000 300.0000 15.90815360    14
CTC2_L_00449011-04
1 54342U 23895HY  26070.40848380  .00000000  00000+0  00000-0 0  9994
2 54342  55.0000 120.0000 0000000   0.0000  30.0000 15.90815360    15
CTC2_L_00449012-01
1 54343U 24688IO  26070.40848380  .00000000  00000+0  00000-0 0  9996
2 54343  55.0000 132.0000 0000000   0.0000 132.0000 15.90815360    12
CTC2_L_00449012-02
1 54344U 23803IB  26070.40848380  .00000000  00000+0  00000-0 0  9995
2 54344  55.0000 132.0000 0000000   0.0000 222.0000 15.90815360    13
CTC2_L_00449012-03
1 54345U 23958Q   26070.40848380  .00000000  00000+0  00000-0 0  9997
2 54345  55.0000 132.0000 0000000   0.0000 312.0000 15.90815360    14
CTC2_L_00449012-04
1 54346U 25795SD  26070.40848380  .00000000  00000+0  00000-0 0  9999
2 54346  55.0000 132.0000 0000000   0.0000  42.0000 15.90815360    15
CTC2_L_00449013-01
1 54347U 26969EK  26070.40848380  .00000000  00000+0  00000-0 0  9994
2 54347  55.0000 144.0000 0000000   0.0000 144.0000 15.90815360    12
CTC2_L_00449013-02
1 54348U 25204EN  26070.40848380  .00000000  00000+0  00000-0 0  9996
2 54348  55.0000 144.0000 0000000   0.0000 234.0000 15.90815360    13
CTC2_L_00449013-03
1 54349U 23783NC  26070.40848380  .00000000  00000+0  00000-0 0  9997
2 54349  55.0000 144.0000 0000000   0.0000 324.0000 15.90815360    14
CTC2_L_00449013-04
1 54350U 24601YX  26070.40848380  .00000000  00000+0  00000-0 0  9999
2 54350  55.0000 144.0000 0000000   0.0000  54.0000 15.90815360    16
CTC2_L_00449014-01
1 54351U 26489PT  26070.40848380  .00000000  00000+0  00000-0 0  9996
2 54351  55.0000 156.0000 0000000   0.0000 156.0000 15.90815360    13
CTC2_L_00449014-02
1 54352U 24244JH  26070.40848380  .00000000  00000+0  00000-0 0  9994
2 54352  55.0000 156.0000 0000000   0.0000 246.0000 15.90815360    14
CTC2_L_00449014-03
1 54353U 24251CC  26070.40848380  .00000000  00000+0  00000-0 0  9993
2 54353  55.0000 156.0000 0000000   0.0000 336.0000 15.90815360    15
CTC2_L_00449014-04
1 54354U 22965PH  26070.40848380  .00000000  00000+0  00000-0 0  9994
2 54354  55.0000 156.0000 0000000   0.0000  66.0000 15.90815360    16
CTC2_L_00449015-01
1 54355U 23781SG  26070.40848380  .00000000  00000+0  00000-0 0  9992
2 54355  55.0000 168.0000 0000000   0.0000 168.0000 15.90815360    13
CTC2_L_00449015-02
1 54356U 26143OV  26070.40848380  .00000000  00000+0  00000-0 0  9998
2 54356  55.0000 168.0000 0000000   0.0000 258.0000 15.90815360    14
CTC2_L_00449015-03
1 54357U 26561KB  26070.40848380  .00000000  00000+0  00000-0 0  9993
2 54357  55.0000 168.0000 0000000   0.0000 348.0000 15.90815360    15
CTC2_L_00449015-04
1 54358U 24475BL  26070.40848380  .00000000  00000+0  00000-0 0  9996
2 54358  55.0000 168.0000 0000000   0.0000  78.0000 15.90815360    16
CTC2_L_00449016-01
1 54359U 23925FF  26070.40848380  .00000000  00000+0  00000-0 0  9996
2 54359  55.0000 180.0000 0000000   0.0000 180.0000 15.90815360    15
CTC2_L_00449016-02
1 54360U 23022QA  26070.40848380  .00000000  00000+0  00000-0 0  9996
2 54360  55.0000 180.0000 0000000   0.0000 270.0000 15.90815360    17
